GLOBALSTAR M024         
1 25883U 99043A   25360.63855763 -.00000083  00000+0 -62774-3 0  9991
2 25883  52.0039 306.3845 0002012  45.3228 126.1974 11.10165635136239
GLOBALSTAR M027         
1 25884U 99043B   25360.38227691 -.00000104  00000+0 -15177-2 0  9995
2 25884  52.0238  30.3890 0021064 301.1708  58.7020 11.04372673162471
GLOBALSTAR M054         
1 25885U 99043C   25360.62076507 -.00000055  00000+0  42032-3 0  9996
2 25885  52.0123 124.8605 0005756 141.9512 230.9760 11.39224912140988
GLOBALSTAR M053         
1 25886U 99043D   25360.62367968 -.00000061  00000+0  22983-3 0  9991
2 25886  51.9993  82.6263 0003567  63.5977  85.2828 11.27668890141155
GLOBALSTAR M058         
1 25907U 99049A   25360.56161131 -.00000103  00000+0 -25136-3 0  9999
2 25907  51.9965 315.4814 0001731 295.0803  64.9852 11.93206031564505
GLOBALSTAR M050         
1 25908U 99049B   25360.62206299  .00000035  00000+0  13889-2 0  9995
2 25908  52.0013 308.6187 0009634  54.4604 116.8217 12.07462813171431
GLOBALSTAR M033         
1 25909U 99049C   25360.50921965 -.00000038  00000+0  51593-3 0  9996
2 25909  51.9876 167.4764 0013186 302.6563  57.3012 12.20295174559226
GLOBALSTAR M055         
1 25910U 99049D   25360.61303019 -.00000086  00000+0  71592-4 0  9999
2 25910  51.9986 168.5604 0007407 161.8933 198.2184 12.29438495191951
